satname,norad_id,inclination_deg,eccentricity,mean_motion_rev_per_day,perigee_km,apogee_km,l1,l2
STARLINK-1513,45786,53.0556,0.0001353,15.06412792,546.2353582226951,548.1093469335028,1 45786U 20038BJ  26015.37216227  .00001070  00000+0  90667-4 0  9996,2 45786  53.0556  75.9716 0001353  89.5450 270.5694 15.06412792308724
STARLINK-1522,46027,53.0568,0.000139,15.06396911,546.2584005290419,548.183650060073,1 46027U 20055A   26015.35282150  .00001623  00000+0  12785-3 0  9998,2 46027  53.0568   6.0557 0001390  88.2196 271.8952 15.06396911300848
STARLINK-1523,46028,53.0556,0.0001483,15.0640207,546.1781854433866,548.2322419439679,1 46028U 20055B   26015.16852349  .00001235  00000+0  10179-3 0  9995,2 46028  53.0556   6.8843 0001483  88.6824 271.4335 15.06402070300831
STARLINK-1526,46029,53.0556,0.0001294,15.06397213,546.323958496344,548.1162409137469,1 46029U 20055C   26015.36019424  .00001004  00000+0  86314-4 0  9996,2 46029  53.0556   6.0221 0001294  91.7175 268.3962 15.06397213300853
STARLINK-1555,46032,53.0569,0.0001573,15.0640558,546.105101456691,548.283810732778,1 46032U 20055F   26015.34544040  .00000912  00000+0  80101-4 0  9990,2 46032  53.0569   6.0891 0001573  94.4749 265.6419 15.06405580300855
STARLINK-1556,46033,53.0562,0.0001422,15.06403207,546.2169457953487,548.1865121298661,1 46033U 20055G   26015.39336163  .00001522  00000+0  12102-3 0  9994,2 46033  53.0562   5.8738 0001422  89.9961 270.1191 15.06403207300834
STARLINK-1557,46034,53.0563,0.0001325,15.06402485,546.2863341068678,548.1215494564403,1 46034U 20055H   26015.26435714 -.00001349  00000+0 -71649-4 0  9994,2 46034  53.0563   6.4528 0001325  82.8846 277.2294 15.06402485300813
STARLINK-1558,46035,53.0549,0.0001364,15.06389458,546.2992458880026,548.1884897887485,1 46035U 20055J   26015.40444623  .00001987  00000+0  15230-3 0  9999,2 46035  53.0549   5.8246 0001364  87.9274 272.1871 15.06389458300866
STARLINK-1560,46036,53.0544,0.0001441,15.06396763,546.223534738021,548.2194230516379,1 46036U 20055K   26015.25698643  .00003213  00000+0  23454-3 0  9997,2 46036  53.0544   6.4876 0001441  93.9685 266.1469 15.06396763300848
STARLINK-1567,46038,53.0558,0.0001424,15.06397579,546.2328072732644,548.2051486557893,1 46038U 20055M   26015.13534951  .00000784  00000+0  71544-4 0  9991,2 46038  53.0558   7.0318 0001424  89.2650 270.8502 15.06397579300817
STARLINK-1569,46039,53.0557,0.0001324,15.0640167,546.2895241621218,548.1233551049363,1 46039U 20055N   26015.34175762  .00000816  00000+0  73665-4 0  9998,2 46039  53.0557   6.1052 0001324  86.5719 273.5422 15.06401670300849
STARLINK-1582,46043,53.0574,0.0001361,15.06380569,546.3285637508379,548.2136598388679,1 46043U 20055S   26015.34915471 -.00000615  00000+0 -22437-4 0  9992,2 46043  53.0574   6.0737 0001361  88.9725 271.1420 15.06380569300841
STARLINK-1591,46045,53.0546,0.0001252,15.06415164,546.2980350313837,548.0321306729302,1 46045U 20055U   26015.37493523  .00005343  00000+0  37713-3 0  9999,2 46045  53.0546   5.9569 0001252  84.7178 275.3954 15.06415164300835
STARLINK-1524,46047,53.0558,0.000133,15.0639717,546.2991589824733,548.1413040060506,1 46047U 20055W   26015.26159753  .00002165  00000+0  16420-3 0  9994,2 46047  53.0558 356.4653 0001330  87.7276 272.3866 15.06397170300977
STARLINK-1527,46048,53.0558,0.0001576,15.06395116,546.1350894434818,548.3179640271092,1 46048U 20055X   26015.32425607  .00000152  00000+0  29077-4 0  9993,2 46048  53.0558 356.1846 0001576  86.5714 273.5455 15.06395116300969
STARLINK-1540,46051,53.0572,0.000147,15.06399619,546.1946992389794,548.2307520583199,1 46051U 20055AA  26015.15838808  .00001538  00000+0  12211-3 0  9999,2 46051  53.0572 356.9293 0001470  87.9560 272.1598 15.06399619300976
STARLINK-1541,46052,53.0552,0.000149,15.06417614,546.1257051996363,548.1894429827153,1 46052U 20055AB  26015.34269100  .00005299  00000+0  37419-3 0  9999,2 46052  53.0552 356.1018 0001490  90.4715 269.6445 15.06417614300962
STARLINK-1543,46053,53.0555,0.0001486,15.06400185,546.1818842285265,548.2400976514336,1 46053U 20055AC  26015.34637168  .00000201  00000+0  32401-4 0  9998,2 46053  53.0555 356.0846 0001486  82.7984 277.3174 15.06400185300994
STARLINK-1548,46054,53.0567,0.0001606,15.06406571,546.0792110988159,548.3036265869487,1 46054U 20055AD  26015.15469628  .00001805  00000+0  14002-3 0  9999,2 46054  53.0567 356.9466 0001606  80.0744 280.0426 15.06406571300967
STARLINK-1554,46055,53.0549,0.000119,15.0640784,546.3634159526382,548.0116431906763,1 46055U 20055AE  26015.33900449  .00004333  00000+0  30954-3 0  9994,2 46055  53.0549 356.1182 0001190  91.7481 268.3644 15.06407840300994
STARLINK-1564,46058,53.0554,0.0001625,15.06403171,546.0764717356487,548.3272068584201,1 46058U 20055AH  26015.35011254  .00000961  00000+0  83407-4 0  9991,2 46058  53.0554 356.5300 0001625  93.6297 266.4878 15.06403171300988
STARLINK-1570,46059,53.0553,0.0001381,15.06397829,546.2618201938458,548.1746033033305,1 46059U 20055AJ  26015.11415115  .00000332  00000+0  41161-4 0  9993,2 46059  53.0553 357.1291 0001381  89.0860 271.0288 15.06397829300910
STARLINK-1572,46060,53.0562,0.0001316,15.06403727,546.2887608766168,548.1115096106123,1 46060U 20055AK  26015.30950284  .00001749  00000+0  13629-3 0  9997,2 46060  53.0562 356.2496 0001316  88.3055 271.8085 15.06403727300957
STARLINK-1573,46061,53.0558,0.0001468,15.06408082,546.170150350983,548.2034254151058,1 46061U 20055AL  26015.37217704  .00000954  00000+0  82896-4 0  9998,2 46061  53.0558 356.0050 0001468  91.5571 268.5586 15.06408082300996
STARLINK-1577,46063,53.0564,0.0001391,15.0639852,546.252777313467,548.1794105441977,1 46063U 20055AN  26015.26528065 -.00000677  00000+0 -26526-4 0  9995,2 46063  53.0564 356.4481 0001391  83.5618 276.5529 15.06398520300974
STARLINK-1583,46064,53.0546,0.0001418,15.06402289,546.2225290611132,548.1865559225625,1 46064U 20055AP  26015.36480409  .00005820  00000+0  40927-3 0  9999,2 46064  53.0546 356.0025 0001418  84.5376 275.5774 15.06402289300998
STARLINK-1525,46066,53.0558,0.0001395,15.0639905,546.2483830229803,548.1805560829844,1 46066U 20055AR  26015.16391462  .00001670  00000+0  13097-3 0  9996,2 46066  53.0558 336.9032 0001395  88.9266 271.1883 15.06399050301230
STARLINK-1536,46070,53.0572,0.0001567,15.06393833,546.1452538887288,548.3156640503703,1 46070U 20055AV  26015.87162503  .00000766  00000+0  70351-4 0  9993,2 46070  53.0572 333.7278 0001567  93.1100 267.0068 15.06393833301359
